[{"OBJECT_NAME":"STARLINK-32034","OBJECT_ID":"2024-132V","EPOCH":"2026-03-09T21:56:59.161632","MEAN_MOTION":15.30203672,"ECCENTRICITY":0.00012496,"INCLINATION":53.1605,"RA_OF_ASC_NODE":51.4684,"ARG_OF_PERICENTER":91.7167,"MEAN_ANOMALY":268.3977,"EPHEMERIS_TYPE":0,"CLASSIFICATION_TYPE":"U","NORAD_CAT_ID":60297,"ELEMENT_SET_NO":999,"REV_AT_EPOCH":9159,"BSTAR":2.8223828e-5,"MEAN_MOTION_DOT":4.77e-6,"MEAN_MOTION_DDOT":0},{"OBJECT_NAME":"KUIPER-00209","OBJECT_ID":"2026-030N","EPOCH":"2026-03-09T14:49:43.575744","MEAN_MOTION":15.3016195,"ECCENTRICITY":0.0012191,"INCLINATION":51.8838,"RA_OF_ASC_NODE":220.0775,"ARG_OF_PERICENTER":59.1967,"MEAN_ANOMALY":301.0215,"EPHEMERIS_TYPE":0,"CLASSIFICATION_TYPE":"U","NORAD_CAT_ID":67776,"ELEMENT_SET_NO":999,"REV_AT_EPOCH":507,"BSTAR":0.0011963,"MEAN_MOTION_DOT":0.00035298,"MEAN_MOTION_DDOT":0}]
